NOAA 14                 
1 23455U 94089A   25107.96710630  .00000148  00000+0  98615-4 0  9991
2 23455  98.4619  93.5101 0008618 220.5344 139.5189 14.14571895563083
NOAA 15                 
1 25338U 98030A   25108.08211616  .00000352  00000+0  16231-3 0  9997
2 25338  98.5403 134.4657 0010991 147.8270 212.3583 14.26944280400919
NOAA 16                 
1 26536U 00055A   25108.05987413  .00000183  00000+0  11837-3 0  9999
2 26536  98.4939 139.1623 0011620  83.2242 277.0253 14.13790536267158
NOAA 17                 
1 27453U 02032A   25107.91380802  .00000372  00000+0  17487-3 0  9995
2 27453  98.8080  65.1021 0012270 139.9522 220.2564 14.25985587186374
NOAA 18                 
1 28654U 05018A   25108.10250027  .00000371  00000+0  22003-3 0  9992
2 28654  98.8427 188.1675 0013063 278.3086  81.6605 14.13577818 26333
NOAA 19                 
1 33591U 09005A   25108.10041032  .00000354  00000+0  21230-3 0  9994
2 33591  99.0010 172.5020 0014465 148.8903 211.3128 14.13342587834698
SUOMI NPP               
1 37849U 11061A   25108.17099797  .00000198  00000+0  11466-3 0  9993
2 37849  98.7545  48.0276 0002515  95.9103 264.2360 14.19520326698131
NOAA 20 (JPSS-1)        
1 43013U 17073A   25108.18668444  .00000173  00000+0  10294-3 0  9995
2 43013  98.7384  47.4468 0002230  83.0204 277.1225 14.19526612384175
NOAA 21 (JPSS-2)        
1 54234U 22150A   25107.87065250  .00000233  00000+0  13100-3 0  9991
2 54234  98.7239  47.5169 0001659  16.7137 343.4094 14.19578550126209
