[
  {
    "OBJECT_NAME": "NOAA 14",
    "OBJECT_ID": "1994-089A",
    "EPOCH": "2025-04-17T23:12:37.984320",
    "MEAN_MOTION": 14.14571895,
    "ECCENTRICITY": 0.0008618,
    "INCLINATION": 98.4619,
    "RA_OF_ASC_NODE": 93.5101,
    "ARG_OF_PERICENTER": 220.5344,
    "MEAN_ANOMALY": 139.5189,
    "EPHEMERIS_TYPE": 0,
    "CLASSIFICATION_TYPE": "U",
    "NORAD_CAT_ID": 23455,
    "ELEMENT_SET_NO": 999,
    "REV_AT_EPOCH": 56308,
    "BSTAR": 0.000098615,
    "MEAN_MOTION_DOT": 0.00000148,
    "MEAN_MOTION_DDOT": 0
  },
  {
    "OBJECT_NAME": "NOAA 15",
    "OBJECT_ID": "1998-030A",
    "EPOCH": "2025-04-18T01:58:14.836224",
    "MEAN_MOTION": 14.2694428,
    "ECCENTRICITY": 0.0010991,
    "INCLINATION": 98.5403,
    "RA_OF_ASC_NODE": 134.4657,
    "ARG_OF_PERICENTER": 147.827,
    "MEAN_ANOMALY": 212.3583,
    "EPHEMERIS_TYPE": 0,
    "CLASSIFICATION_TYPE": "U",
    "NORAD_CAT_ID": 25338,
    "ELEMENT_SET_NO": 999,
    "REV_AT_EPOCH": 40091,
    "BSTAR": 0.00016231,
    "MEAN_MOTION_DOT": 0.00000352,
    "MEAN_MOTION_DDOT": 0
  },
  {
    "OBJECT_NAME": "NOAA 16",
    "OBJECT_ID": "2000-055A",
    "EPOCH": "2025-04-18T01:26:13.124832",
    "MEAN_MOTION": 14.13790536,
    "ECCENTRICITY": 0.001162,
    "INCLINATION": 98.4939,
    "RA_OF_ASC_NODE": 139.1623,
    "ARG_OF_PERICENTER": 83.2242,
    "MEAN_ANOMALY": 277.0253,
    "EPHEMERIS_TYPE": 0,
    "CLASSIFICATION_TYPE": "U",
    "NORAD_CAT_ID": 26536,
    "ELEMENT_SET_NO": 999,
    "REV_AT_EPOCH": 26715,
    "BSTAR": 0.00011837,
    "MEAN_MOTION_DOT": 0.00000183,
    "MEAN_MOTION_DDOT": 0
  },
  {
    "OBJECT_NAME": "NOAA 17",
    "OBJECT_ID": "2002-032A",
    "EPOCH": "2025-04-17T21:55:53.012928",
    "MEAN_MOTION": 14.25985587,
    "ECCENTRICITY": 0.001227,
    "INCLINATION": 98.808,
    "RA_OF_ASC_NODE": 65.1021,
    "ARG_OF_PERICENTER": 139.9522,
    "MEAN_ANOMALY": 220.2564,
    "EPHEMERIS_TYPE": 0,
    "CLASSIFICATION_TYPE": "U",
    "NORAD_CAT_ID": 27453,
    "ELEMENT_SET_NO": 999,
    "REV_AT_EPOCH": 18637,
    "BSTAR": 0.00017487,
    "MEAN_MOTION_DOT": 0.00000372,
    "MEAN_MOTION_DDOT": 0
  },
  {
    "OBJECT_NAME": "NOAA 18",
    "OBJECT_ID": "2005-018A",
    "EPOCH": "2025-04-18T02:27:36.023328",
    "MEAN_MOTION": 14.13577818,
    "ECCENTRICITY": 0.0013063,
    "INCLINATION": 98.8427,
    "RA_OF_ASC_NODE": 188.1675,
    "ARG_OF_PERICENTER": 278.3086,
    "MEAN_ANOMALY": 81.6605,
    "EPHEMERIS_TYPE": 0,
    "CLASSIFICATION_TYPE": "U",
    "NORAD_CAT_ID": 28654,
    "ELEMENT_SET_NO": 999,
    "REV_AT_EPOCH": 2633,
    "BSTAR": 0.00022003,
    "MEAN_MOTION_DOT": 0.00000371,
    "MEAN_MOTION_DDOT": 0
  },
  {
    "OBJECT_NAME": "NOAA 19",
    "OBJECT_ID": "2009-005A",
    "EPOCH": "2025-04-18T02:24:35.451648",
    "MEAN_MOTION": 14.13342587,
    "ECCENTRICITY": 0.0014465,
    "INCLINATION": 99.001,
    "RA_OF_ASC_NODE": 172.502,
    "ARG_OF_PERICENTER": 148.8903,
    "MEAN_ANOMALY": 211.3128,
    "EPHEMERIS_TYPE": 0,
    "CLASSIFICATION_TYPE": "U",
    "NORAD_CAT_ID": 33591,
    "ELEMENT_SET_NO": 999,
    "REV_AT_EPOCH": 83469,
    "BSTAR": 0.0002123,
    "MEAN_MOTION_DOT": 0.00000354,
    "MEAN_MOTION_DDOT": 0
  },
  {
    "OBJECT_NAME": "SUOMI NPP",
    "OBJECT_ID": "2011-061A",
    "EPOCH": "2025-04-18T04:06:14.224608",
    "MEAN_MOTION": 14.19520326,
    "ECCENTRICITY": 0.0002515,
    "INCLINATION": 98.7545,
    "RA_OF_ASC_NODE": 48.0276,
    "ARG_OF_PERICENTER": 95.9103,
    "MEAN_ANOMALY": 264.236,
    "EPHEMERIS_TYPE": 0,
    "CLASSIFICATION_TYPE": "U",
    "NORAD_CAT_ID": 37849,
    "ELEMENT_SET_NO": 999,
    "REV_AT_EPOCH": 69813,
    "BSTAR": 0.00011466,
    "MEAN_MOTION_DOT": 0.00000198,
    "MEAN_MOTION_DDOT": 0
  },
  {
    "OBJECT_NAME": "NOAA 20 (JPSS-1)",
    "OBJECT_ID": "2017-073A",
    "EPOCH": "2025-04-18T04:28:49.535616",
    "MEAN_MOTION": 14.19526612,
    "ECCENTRICITY": 0.000223,
    "INCLINATION": 98.7384,
    "RA_OF_ASC_NODE": 47.4468,
    "ARG_OF_PERICENTER": 83.0204,
    "MEAN_ANOMALY": 277.1225,
    "EPHEMERIS_TYPE": 0,
    "CLASSIFICATION_TYPE": "U",
    "NORAD_CAT_ID": 43013,
    "ELEMENT_SET_NO": 999,
    "REV_AT_EPOCH": 38417,
    "BSTAR": 0.00010294,
    "MEAN_MOTION_DOT": 0.00000173,
    "MEAN_MOTION_DDOT": 0
  },
  {
    "OBJECT_NAME": "NOAA 21 (JPSS-2)",
    "OBJECT_ID": "2022-150A",
    "EPOCH": "2025-04-17T20:53:44.376000",
    "MEAN_MOTION": 14.1957855,
    "ECCENTRICITY": 0.0001659,
    "INCLINATION": 98.7239,
    "RA_OF_ASC_NODE": 47.5169,
    "ARG_OF_PERICENTER": 16.7137,
    "MEAN_ANOMALY": 343.4094,
    "EPHEMERIS_TYPE": 0,
    "CLASSIFICATION_TYPE": "U",
    "NORAD_CAT_ID": 54234,
    "ELEMENT_SET_NO": 999,
    "REV_AT_EPOCH": 12620,
    "BSTAR": 0.000131,
    "MEAN_MOTION_DOT": 0.00000233,
    "MEAN_MOTION_DDOT": 0
  }
]